OBJECT_NAME,OBJECT_ID,EPOCH,MEAN_MOTION,ECCENTRICITY,INCLINATION,RA_OF_ASC_NODE,ARG_OF_PERICENTER,MEAN_ANOMALY,EPHEMERIS_TYPE,CLASSIFICATION_TYPE,NORAD_CAT_ID,ELEMENT_SET_NO,REV_AT_EPOCH,BSTAR,MEAN_MOTION_DOT,MEAN_MOTION_DDOT
STARLINK-2657,2021-044T,2026-07-15T08:32:22.324416,15.31719619,.00011838,53.1597,239.9704,109.5142,250.5987,0,U,48655,999,28338,.81144989E-4,.2155E-4,0
STARLINK-2701,2021-044U,2026-07-15T09:39:28.685376,15.31703763,.00010761,53.1598,239.6111,81.8633,278.2490,0,U,48656,999,28339,.2467487E-4,.401E-5,0
STARLINK-2734,2021-044V,2026-07-15T11:26:53.134368,15.31702139,.00012097,53.1595,239.3779,88.7544,271.3596,0,U,48657,999,28340,.15857095E-4,.127E-5,0
STARLINK-2647,2021-044W,2026-07-15T14:01:21.290016,15.31698229,.00013142,53.1602,239.3961,83.0341,277.0810,0,U,48658,999,28341,.22562527E-4,.335E-5,0
STARLINK-2717,2021-044X,2026-07-15T14:07:56.533728,15.31699429,.00011108,53.1598,238.7580,81.6071,278.5057,0,U,48659,999,28342,.15758702E-4,.124E-5,0
STARLINK-2726,2021-044AA,2026-07-15T09:38:23.811936,15.29352120,.00011139,53.1573,240.9726,60.4810,299.6302,0,U,48662,999,28336,.38072237E-4,.743E-5,0
STARLINK-2667,2021-044AB,2026-07-15T09:16:27.483744,15.31701990,.00011709,53.1587,229.7412,91.8030,268.3105,0,U,48663,999,28353,.20884467E-4,.283E-5,0
STARLINK-2666,2021-044AE,2026-07-15T10:38:22.280352,15.29357551,.0001389,53.1598,240.8592,85.0363,275.0796,0,U,48666,999,28336,-.77569769E-4,-.2594E-4,0
STARLINK-2735,2021-044AF,2026-07-15T10:50:42.288576,15.29354360,.00009183,53.1599,240.7194,57.8689,302.2401,0,U,48667,999,28337,-.43171544E-4,-.1601E-4,0
STARLINK-2738,2021-044AG,2026-07-15T13:51:38.096928,15.31706308,.00012714,53.1600,228.9022,81.6299,278.4846,0,U,48668,999,28356,.35461405E-4,.736E-5,0
STARLINK-2707,2021-044AH,2026-07-15T09:23:12.474240,15.31700690,.00010465,53.1589,229.8983,79.1814,280.9305,0,U,48669,999,28352,.15430555E-4,.114E-5,0
STARLINK-2763,2021-044AJ,2026-07-15T08:02:41.827776,15.31695599,.00011388,53.1590,230.2833,89.3753,270.7379,0,U,48670,999,28351,.17414142E-4,.175E-5,0
STARLINK-2745,2021-044AK,2026-07-15T10:41:24.974880,15.29348897,.00014238,53.1599,240.8534,75.3126,284.8033,0,U,48671,999,28336,.1445977E-4,.61E-6,0
STARLINK-2705,2021-044AL,2026-07-15T09:43:23.609568,15.31695350,.00012059,53.1592,230.0753,75.7387,284.3748,0,U,48672,999,28352,.15739079E-4,.123E-5,0
STARLINK-2711,2021-044AM,2026-07-15T10:28:27.369696,15.29349030,.00013812,53.1557,240.8328,76.5908,283.5246,0,U,48673,999,28336,-.1180043E-5,-.39E-5,0
STARLINK-2712,2021-044AN,2026-07-15T10:24:42.805728,15.29350508,.00012241,53.1586,240.8871,76.4065,283.7072,0,U,48674,999,28336,.13531759E-4,.35E-6,0
STARLINK-2746,2021-044AQ,2026-07-15T13:23:49.192800,15.29352877,.00014301,53.1595,240.3116,67.5839,292.5313,0,U,48676,999,28338,-.2956651E-5,-.441E-5,0
STARLINK-2615,2021-044AS,2026-07-15T09:29:51.644832,15.31699856,.0001416,53.1573,229.5939,87.5676,272.5487,0,U,48678,999,28353,.20702671E-4,.277E-5,0
STARLINK-2648,2021-044AT,2026-07-15T11:24:04.637088,15.29374375,.00010429,53.1600,240.6252,68.3848,291.7263,0,U,48679,999,28337,.12660461E-3,.3301E-4,0
STARLINK-2725,2021-044AV,2026-07-15T11:27:06.866784,15.31737614,.00010122,53.1584,201.0419,154.7019,205.4033,0,U,48681,999,28393,-.43929294E-3,-.13987E-3,0
STARLINK-2743,2021-044AW,2026-07-15T10:09:18.152928,15.31701262,.00012879,53.1586,190.6776,90.6540,269.4609,0,U,48682,999,28407,-.21457179E-4,-.1031E-4,0
STARLINK-2756,2021-044AX,2026-07-15T05:14:02.426496,15.31696964,.00011013,53.1561,191.8234,91.5897,268.5231,0,U,48683,999,28404,.10049327E-3,.2754E-4,0
STARLINK-2741,2021-044AY,2026-07-15T07:19:13.702080,15.31699842,.00012439,53.1593,204.1356,87.5201,272.5943,0,U,48684,999,28388,.1208382E-4,.1E-6,0
STARLINK-2751,2021-044AZ,2026-07-15T08:28:36.710688,15.31706172,.00010456,53.1571,190.9079,96.4324,263.6797,0,U,48685,999,28407,-.4133685E-5,-.493E-5,0
STARLINK-2629,2021-044BA,2026-07-15T13:00:30.555648,15.31743904,.00008968,53.1595,200.4908,84.9577,275.1526,0,U,48686,999,28394,-.31231666E-3,-.10057E-3,0
STARLINK-2627,2021-044BB,2026-07-15T09:02:12.214464,15.31637548,.0000812,53.1583,190.8688,156.7126,203.3912,0,U,48687,999,28406,.79586711E-3,.24364E-3,0
STARLINK-2742,2021-044BC,2026-07-15T06:27:51.485760,15.31704724,.00013479,53.1592,191.5760,73.3782,286.7368,0,U,48688,999,28404,.33223296E-4,.666E-5,0
STARLINK-2740,2021-044BE,2026-07-15T06:04:54.046848,15.31698804,.0001236,53.1590,201.7894,95.1330,264.9812,0,U,48690,999,28390,.9322468E-5,-.76E-6,0
STARLINK-2750,2021-044BF,2026-07-15T07:58:31.042272,15.31694884,.00013181,53.1580,201.4013,90.4101,269.7051,0,U,48691,999,28391,-.2311808E-5,-.437E-5,0
STARLINK-2752,2021-044BG,2026-07-15T06:51:21.444768,15.31696636,.00013025,53.1603,201.4148,81.5380,278.5769,0,U,48692,999,28391,.1817594E-5,-.309E-5,0
STARLINK-2618,2021-044BH,2026-07-15T06:38:26.730528,15.31697714,.00014038,53.1592,201.5934,85.7271,274.3891,0,U,48693,999,28391,-.13443136E-4,-.782E-5,0
STARLINK-2748,2021-044BJ,2026-07-15T11:07:31.981440,15.31697264,.00015516,53.1583,203.9655,80.4904,279.6273,0,U,48694,999,28389,-.8306543E-5,-.623E-5,0
STARLINK-2616,2021-044BK,2026-07-15T08:13:22.942560,15.31680226,.00012021,53.1578,203.8379,86.0760,274.0379,0,U,48695,999,28389,.91776132E-4,.2482E-4,0
STARLINK-2753,2021-044BL,2026-07-15T07:50:04.063488,15.31699021,.00012421,53.1592,214.7147,86.8806,273.2337,0,U,48696,999,28373,.2775435E-5,-.279E-5,0
STARLINK-3005,2021-059C,2026-07-15T07:42:56.231424,15.01275009,.00047265,97.4473,320.4249,166.9728,193.1620,0,U,48881,999,27795,-.12820068E-3,-.1704E-4,0
STARLINK-3090,2021-082C,2026-07-15T13:13:22.043712,14.98329311,.00030732,70.0009,331.9468,269.2053,90.8754,0,U,49132,999,26513,-.6780388E-5,-.174E-5,0
STARLINK-3077,2021-082D,2026-07-15T12:01:16.540032,14.98330132,.0003152,70.0009,332.1990,267.1751,92.9047,0,U,49133,999,26512,-.15103249E-4,-.273E-5,0
STARLINK-3078,2021-082E,2026-07-15T11:55:16.205376,14.98329589,.00030719,70.0009,332.2127,267.6772,92.4035,0,U,49134,999,26632,-.9798358E-5,-.21E-5,0
STARLINK-3073,2021-082F,2026-07-15T12:48:40.265568,14.98332333,.00032934,70.0002,292.0985,268.2424,91.8358,0,U,49135,999,26612,.1117641E-5,-.8E-6,0
STARLINK-3055,2021-082H,2026-07-15T12:40:25.810464,14.97523112,.00032883,70.0005,313.3218,268.3713,91.7069,0,U,49137,999,26559,-.1355274E-5,-.108E-5,0
STARLINK-3058,2021-082J,2026-07-15T13:25:23.825856,14.98329503,.00031378,70.0009,332.0577,268.2875,91.7925,0,U,49138,999,26513,-.20810052E-4,-.341E-5,0
STARLINK-3057,2021-082K,2026-07-15T16:00:03.000096,15.23552731,.00033609,70.0005,289.1061,283.1144,18.6390,0,U,49139,999,575,.27908223E-2,.67379E-3,0
STARLINK-3093,2021-082M,2026-07-15T13:19:23.346048,14.98328768,.00028623,70.0010,332.0732,264.1929,95.8903,0,U,49141,999,26633,-.5425122E-5,-.158E-5,0
STARLINK-3109,2021-082P,2026-07-15T12:34:37.218432,14.97522410,.00031615,70.0002,313.3356,265.1744,94.9054,0,U,49143,999,26670,.69366435E-4,.718E-5,0
STARLINK-3100,2021-082Q,2026-07-15T13:07:22.324224,14.98326663,.00029093,70.0003,332.0726,265.3424,94.7402,0,U,49144,999,26513,-.84525885E-4,-.1101E-4,0
STARLINK-3119,2021-082R,2026-07-15T11:54:36.599616,14.98330955,.00036281,69.9995,292.1946,268.0521,92.0222,0,U,49145,999,26610,-.72764709E-4,-.961E-5,0
STARLINK-3116,2021-082S,2026-07-15T10:52:24.380544,14.97523657,.00031173,70.0003,313.5177,268.0711,92.0091,0,U,49146,999,26673,-.81453827E-4,-.1044E-4,0
STARLINK-3071,2021-082T,2026-07-15T12:12:37.595808,14.98330682,.00034817,69.9996,292.1800,272.2538,87.8222,0,U,49147,999,26611,-.4981698E-5,-.153E-5,0
STARLINK-3048,2021-082U,2026-07-15T12:16:33.727872,14.97523007,.00027863,70.0004,313.3493,268.8699,91.2141,0,U,49148,999,26558,-.1115965E-4,-.223E-5,0
STARLINK-3102,2021-082X,2026-07-15T13:18:42.875424,14.98332836,.0003486,69.9997,292.0551,268.6691,91.4069,0,U,49151,999,26731,.6242264E-5,-.19E-6,0
STARLINK-3072,2021-082Z,2026-07-15T13:06:42.047136,14.98331471,.00032048,69.9999,292.0844,270.2001,89.8791,0,U,49153,999,26732,.24103708E-4,.195E-5,0
STARLINK-3068,2021-082AA,2026-07-15T12:10:33.337056,14.97520843,.00030652,70.0005,313.3640,267.2053,92.8755,0,U,49154,999,26666,-.33252868E-4,-.481E-5,0
STARLINK-3060,2021-082AB,2026-07-15T13:00:41.582880,14.98331090,.00034416,70.0002,292.0862,270.7954,89.2811,0,U,49155,999,26719,-.1065382E-4,-.22E-5,0
STARLINK-3085,2021-082AC,2026-07-15T12:30:38.960928,14.98328891,.00033306,70.0001,292.1392,266.7702,93.3076,0,U,49156,999,26719,.5527894E-5,-.27E-6,0
STARLINK-3051,2021-082AD,2026-07-15T11:04:34.832064,15.06244497,.00019569,69.9993,306.0743,22.3917,337.7331,0,U,49157,999,26686,.87520581E-3,.1279E-3,0
STARLINK-3083,2021-082AE,2026-07-15T11:19:10.994592,15.82635616,.00051304,69.9586,172.1805,260.4504,99.6118,0,U,49158,999,27014,.36251304E-3,.76622E-3,0
STARLINK-3056,2021-082AF,2026-07-15T16:01:36.779520,14.98330030,.0002912,70.0004,331.7776,261.8844,98.1984,0,U,49159,999,26624,.28305266E-4,.245E-5,0
STARLINK-3095,2021-082AG,2026-07-15T12:31:19.284672,14.98328833,.00031642,70.0008,332.1278,267.0486,93.0311,0,U,49160,999,26619,-.59780986E-4,-.806E-5,0
STARLINK-3080,2021-082AH,2026-07-15T12:37:19.923456,14.98332877,.00030751,70.0006,332.1140,271.2195,88.8612,0,U,49161,999,26620,.26934076E-4,.228E-5,0
STARLINK-3088,2021-082AK,2026-07-15T11:52:32.689056,14.97508891,.00033252,70.0004,313.4048,270.2926,89.7852,0,U,49163,999,26674,.35222727E-4,.319E-5,0
STARLINK-3106,2021-082AL,2026-07-15T16:00:03.000096,14.98316929,.00034542,70.0027,311.7764,272.7833,352.7066,0,U,49164,999,572,.24705825E-2,.29501E-3,0
STARLINK-3052,2021-082AM,2026-07-15T15:37:34.887936,14.98331354,.00031132,70.0005,331.8334,268.5433,91.5370,0,U,49165,999,26634,-.6849559E-5,-.175E-5,0
STARLINK-3089,2021-082AN,2026-07-15T11:46:30.043200,14.97522773,.00033706,70.0000,313.4187,270.2306,89.8467,0,U,49166,999,26678,.39504113E-4,.369E-5,0
STARLINK-3054,2021-082AP,2026-07-15T12:13:17.561856,14.98328533,.00033418,70.0006,332.1709,268.9108,91.1668,0,U,49167,999,26632,.22064697E-4,.17E-5,0
